{
  "type": "FeatureCollection",
  "features": [
    {
      "type": "Feature",
      "properties": {
        "name": "uav_trajectory"
      },
      "geometry": {
        "type": "LineString",
        "coordinates": [
          [
            77.20877420881769,
            28.613773982877905,
            265.7847371120006
          ],
          [
            77.20878967829499,
            28.613779576946996,
            265.6366916615516
          ],
          [
            77.208805133089,
            28.613785122513168,
            265.4889174271375
          ],
          [
            77.20882061265569,
            28.61379061604156,
            265.3436540644616
          ],
          [
            77.2088361355006,
            28.613795894446117,
            265.1954501857981
          ],
          [
            77.20885164114985,
            28.613800850584862,
            265.03311620559543
          ],
          [
            77.20886725493274,
            28.613805781985402,
            264.89757786877453
          ],
          [
            77.20888265232377,
            28.613810171655413,
            264.7288939226419
          ],
          [
            77.20889809373897,
            28.61381416861884,
            264.5530879031867
          ],
          [
            77.20891358755844,
            28.613817720122626,
            264.3787795584649
          ],
          [
            77.20892897278483,
            28.613820725006544,
            264.1848977552727
          ],
          [
            77.20894430525597,
            28.613823268212368,
            263.99717175681144
          ],
          [
            77.20896720083675,
            28.61382594709653,
            263.68638384342194
          ],
          [
            77.20898249060068,
            28.613827054279298,
            263.4741867892444
          ],
          [
            77.20899763598713,
            28.61382740429529,
            263.2451642435044
          ],
          [
            77.20901256460576,
            28.61382697510473,
            263.0206030001864
          ],
          [
            77.20902761073103,
            28.61382618045621,
            262.79535968601704
          ],
          [
            77.20904313259224,
            28.613824887169233,
            262.57332745939493
          ],
          [
            77.20905803883267,
            28.61382251612894,
            262.3388146664947
          ],
          [
            77.20907349418341,
            28.613820120934,
            262.1428139284253
          ],
          [
            77.20908851364301,
            28.613816928577425,
            261.91490831412375
          ],
          [
            77.20910341345414,
            28.61381325465105,
            261.6879951991141
          ],
          [
            77.20911827718166,
            28.613809206713416,
            261.46092808339745
          ],
          [
            77.20913361777912,
            28.613804847094432,
            261.2561997817829
          ],
          [
            77.20914855792294,
            28.613800027599947,
            261.028769464232
          ],
          [
            77.20916358365172,
            28.61379494634131,
            260.80015048757195
          ],
          [
            77.20917841915703,
            28.613789612695584,
            260.56982325110584
          ],
          [
            77.20919361197419,
            28.613784116617182,
            260.34806039277464
          ],
          [
            77.20920853046371,
            28.61377847314195,
            260.1165215773508
          ]
        ]
      }
    }
  ]
}