{
  "type": "FeatureCollection",
  "features": [
    {
      "type": "Feature",
      "properties": {
        "name": "uav_trajectory"
      },
      "geometry": {
        "type": "LineString",
        "coordinates": [
          [
            77.20878144349533,
            28.613773380515184,
            265.73393539339304
          ],
          [
            77.20879471525807,
            28.61377917256571,
            265.59051518607885
          ],
          [
            77.208808065731,
            28.61378478738319,
            265.4417147189379
          ],
          [
            77.20882127096166,
            28.613790507968194,
            265.2699570367113
          ],
          [
            77.20883521201529,
            28.61379607956935,
            265.1314681377262
          ],
          [
            77.20884963150108,
            28.613801346536775,
            264.99659583251923
          ],
          [
            77.20886447728905,
            28.613806639244277,
            264.865227217786
          ],
          [
            77.20888041312074,
            28.613811656303128,
            264.75527169182897
          ],
          [
            77.20889859789484,
            28.613815745649873,
            264.6738454736769
          ],
          [
            77.20891931671828,
            28.6138182465658,
            264.5992976138368
          ],
          [
            77.2089264392503,
            28.613825225526053,
            264.24651271570474
          ],
          [
            77.2089561706658,
            28.613824100000322,
            264.3644619928673
          ],
          [
            77.20893797968438,
            28.613828899185688,
            263.4553550584242
          ],
          [
            77.20899514623719,
            28.613818666442604,
            263.0954305520281
          ],
          [
            77.20898785198072,
            28.613829783084235,
            263.1396936168894
          ],
          [
            77.20894469317969,
            28.613821484794524,
            262.2002188805491
          ]
        ]
      }
    }
  ]
}